ORBCOMM FM33            
1 25983U 99065D   24185.45345547  .00001266  00000+0  46220-3 0  9994
2 25983  45.0276 214.4323 0006222 109.2391 250.9132 14.37895425285903
ORBCOMM FM36            
1 25984U 99065E   24184.80662058  .00002094  00000+0  76495-3 0  9999
2 25984  45.0402 303.9046 0003124 307.9017  52.1548 14.35819461284750
ORBCOMM FM35            
1 25985U 99065F   24185.49185771  .00001399  00000+0  53252-3 0  9991
2 25985  45.0410 303.5064 0002354 123.3843 236.7230 14.35335100284848
ORBCOMM FM34            
1 25986U 99065G   24185.46338965  .00001378  00000+0  52554-3 0  9995
2 25986  45.0399 304.1854 0001881  24.4609 335.6328 14.35311912284802
ORBCOMM FM38            
1 33060U 08031A   24185.45692940  .00002578  00000+0  38298-3 0  9997
2 33060  48.4389 173.1409 0006005 342.3846  17.6859 14.77889160863099
ORBCOMM FM41            
1 33061U 08031B   24185.54020641  .00002373  00000+0  35716-3 0  9996
2 33061  48.4422 179.4953 0005270 329.3682 177.5868 14.77612749863056
ORBCOMM FM29            
1 33062U 08031C   24185.17413703  .00002592  00000+0  38792-3 0  9991
2 33062  48.4375 189.2654 0007156 326.0176  82.3391 14.77557129862860
ORBCOMM FM39            
1 33063U 08031D   24185.50606800  .00001879  00000+0  29613-3 0  9990
2 33063  48.4389 208.6283 0008165 303.7077  56.3058 14.76516385862637
